[
    {
        "Altitude(m)": 612502.2444871519,
        "Argument of Periapsis(deg)": 0.0,
        "Eccentricity": 0.0,
        "Inclination(deg)": 60.0,
        "Latitude(deg)": -28.13613453241993,
        "Longitude(deg)": -42.85171603060915,
        "Mean Anomaly(deg)": -32.7273,
        "RAAN(deg)": 75.0,
        "Satellite Name": "Test1 350",
        "Satellite Number": 350,
        "Semi-Major Axis(m)": 6980739.136638005,
        "Time(s)": 0
    },
    {
        "Altitude(m)": 612308.6916461797,
        "Argument of Periapsis(deg)": 0.00010418945913296404,
        "Eccentricity": 0.0,
        "Inclination(deg)": 60.0,
        "Latitude(deg)": -27.6231894460813,
        "Longitude(deg)": -42.49824210698344,
        "Mean Anomaly(deg)": -32.10719385453816,
        "RAAN(deg)": 74.99957995086027,
        "Satellite Name": "Test1 350",
        "Satellite Number": 350,
        "Semi-Major Axis(m)": 6980739.136638005,
        "Time(s)": 10
    },
    {
        "Altitude(m)": 612116.1076964014,
        "Argument of Periapsis(deg)": 0.0002083789182659281,
        "Eccentricity": 0.0,
        "Inclination(deg)": 60.0,
        "Latitude(deg)": -27.109075496199786,
        "Longitude(deg)": -42.148419364179745,
        "Mean Anomaly(deg)": -31.48708770907637,
        "RAAN(deg)": 74.99915990172052,
        "Satellite Name": "Test1 350",
        "Satellite Number": 350,
        "Semi-Major Axis(m)": 6980739.136638005,
        "Time(s)": 20
    },
    {
        "Altitude(m)": 611924.5622247338,
        "Argument of Periapsis(deg)": 0.00031256837739889213,
        "Eccentricity": 0.0,
        "Inclination(deg)": 60.0,
        "Latitude(deg)": -26.593826998267556,
        "Longitude(deg)": -41.8021433850972,
        "Mean Anomaly(deg)": -30.86698156361453,
        "RAAN(deg)": 74.99873985258078,
        "Satellite Name": "Test1 350",
        "Satellite Number": 350,
        "Semi-Major Axis(m)": 6980739.136638005,
        "Time(s)": 30
    },
    {
        "Altitude(m)": 611734.1242114889,
        "Argument of Periapsis(deg)": 0.0004167578365318562,
        "Eccentricity": 0.0,
        "Inclination(deg)": 60.0,
        "Latitude(deg)": -26.077477418425907,
        "Longitude(deg)": -41.459311470256985,
        "Mean Anomaly(deg)": -30.24687541815269,
        "RAAN(deg)": 74.99831980344103,
        "Satellite Name": "Test1 350",
        "Satellite Number": 350,
        "Semi-Major Axis(m)": 6980739.136638005,
        "Time(s)": 40
    },
    {
        "Altitude(m)": 611544.8619998647,
        "Argument of Periapsis(deg)": 0.0005209472956648203,
        "Eccentricity": 0.0,
        "Inclination(deg)": 60.0,
        "Latitude(deg)": -25.56005940586897,
        "Longitude(deg)": -41.11982358254258,
        "Mean Anomaly(deg)": -29.62676927269085,
        "RAAN(deg)": 74.9978997543013,
        "Satellite Name": "Test1 350",
        "Satellite Number": 350,
        "Semi-Major Axis(m)": 6980739.136638005,
        "Time(s)": 50
    },
    {
        "Altitude(m)": 611356.8432657137,
        "Argument of Periapsis(deg)": 0.0006251367547977843,
        "Eccentricity": 0.0,
        "Inclination(deg)": 60.0,
        "Latitude(deg)": -25.041604824141572,
        "Longitude(deg)": -40.78358177981918,
        "Mean Anomaly(deg)": -29.00666312722906,
        "RAAN(deg)": 74.99747970516155,
        "Satellite Name": "Test1 350",
        "Satellite Number": 350,
        "Semi-Major Axis(m)": 6980739.136638005,
        "Time(s)": 60
    },
    {
        "Altitude(m)": 611170.1349876199,
        "Argument of Periapsis(deg)": 0.0007293262139307483,
        "Eccentricity": 0.0,
        "Inclination(deg)": 60.0,
        "Latitude(deg)": -24.522144781371107,
        "Longitude(deg)": -40.45048964836625,
        "Mean Anomaly(deg)": -28.386556981767164,
        "RAAN(deg)": 74.9970596560218,
        "Satellite Name": "Test1 350",
        "Satellite Number": 350,
        "Semi-Major Axis(m)": 6980739.136638005,
        "Time(s)": 70
    },
    {
        "Altitude(m)": 610984.8034172793,
        "Argument of Periapsis(deg)": 0.0008335156730637124,
        "Eccentricity": 0.0,
        "Inclination(deg)": 60.0,
        "Latitude(deg)": -24.001709659473132,
        "Longitude(deg)": -40.120453250048214,
        "Mean Anomaly(deg)": -27.766450836305378,
        "RAAN(deg)": 74.99663960688207,
        "Satellite Name": "Test1 350",
        "Satellite Number": 350,
        "Semi-Major Axis(m)": 6980739.136638005,
        "Time(s)": 80
    },
    {
        "Altitude(m)": 610800.9140502127,
        "Argument of Periapsis(deg)": 0.0009377051321966765,
        "Eccentricity": 0.0,
        "Inclination(deg)": 60.0,
        "Latitude(deg)": -23.480329142362315,
        "Longitude(deg)": -39.793380557516144,
        "Mean Anomaly(deg)": -27.146344690843538,
        "RAAN(deg)": 74.99621955774232,
        "Satellite Name": "Test1 350",
        "Satellite Number": 350,
        "Semi-Major Axis(m)": 6980739.136638005,
        "Time(s)": 90
    },
    {
        "Altitude(m)": 610618.5315968344,
        "Argument of Periapsis(deg)": 0.0010418945913296407,
        "Eccentricity": 0.0,
        "Inclination(deg)": 60.0,
        "Latitude(deg)": -22.95803224320871,
        "Longitude(deg)": -39.46918089034779,
        "Mean Anomaly(deg)": -26.526238545381684,
        "RAAN(deg)": 74.99579950860257,
        "Satellite Name": "Test1 350",
        "Satellite Number": 350,
        "Semi-Major Axis(m)": 6980739.136638005,
        "Time(s)": 100
    },
    {
        "Altitude(m)": 610437.7199538808,
        "Argument of Periapsis(deg)": 0.0011460840504626045,
        "Eccentricity": 0.0,
        "Inclination(deg)": 60.0,
        "Latitude(deg)": -22.434847330774623,
        "Longitude(deg)": -39.147765865026585,
        "Mean Anomaly(deg)": -25.906132399919894,
        "RAAN(deg)": 74.99537945946284,
        "Satellite Name": "Test1 350",
        "Satellite Number": 350,
        "Semi-Major Axis(m)": 6980739.136638005,
        "Time(s)": 110
    },
    {
        "Altitude(m)": 610258.5421761939,
        "Argument of Periapsis(deg)": 0.0012502735095955685,
        "Eccentricity": 0.0,
        "Inclination(deg)": 60.0,
        "Latitude(deg)": -21.910802154863696,
        "Longitude(deg)": -38.82904883302964,
        "Mean Anomaly(deg)": -25.286026254458054,
        "RAAN(deg)": 74.99495941032309,
        "Satellite Name": "Test1 350",
        "Satellite Number": 350,
        "Semi-Major Axis(m)": 6980739.136638005,
        "Time(s)": 120
    },
    {
        "Altitude(m)": 610081.0604489177,
        "Argument of Periapsis(deg)": 0.0013544629687285324,
        "Eccentricity": 0.0,
        "Inclination(deg)": 60.0,
        "Latitude(deg)": -21.38592387091775,
        "Longitude(deg)": -38.51294431991367,
        "Mean Anomaly(deg)": -24.665920108996218,
        "RAAN(deg)": 74.99453936118336,
        "Satellite Name": "Test1 350",
        "Satellite Number": 350,
        "Semi-Major Axis(m)": 6980739.136638005,
        "Time(s)": 130
    },
    {
        "Altitude(m)": 609905.3360600818,
        "Argument of Periapsis(deg)": 0.0014586524278614966,
        "Eccentricity": 0.0,
        "Inclination(deg)": 60.0,
        "Latitude(deg)": -20.860239063795905,
        "Longitude(deg)": -38.199368978279615,
        "Mean Anomaly(deg)": -24.04581396353438,
        "RAAN(deg)": 74.9941193120436,
        "Satellite Name": "Test1 350",
        "Satellite Number": 350,
        "Semi-Major Axis(m)": 6980739.136638005,
        "Time(s)": 140
    },
    {
        "Altitude(m)": 609731.4293736131,
        "Argument of Periapsis(deg)": 0.0015628418869944607,
        "Eccentricity": 0.0,
        "Inclination(deg)": 60.0,
        "Latitude(deg)": -20.33377377076407,
        "Longitude(deg)": -37.88824102887205,
        "Mean Anomaly(deg)": -23.42570781807259,
        "RAAN(deg)": 74.99369926290386,
        "Satellite Name": "Test1 350",
        "Satellite Number": 350,
        "Semi-Major Axis(m)": 6980739.136638005,
        "Time(s)": 150
    },
    {
        "Altitude(m)": 609559.3998027686,
        "Argument of Periapsis(deg)": 0.0016670313461274247,
        "Eccentricity": 0.0,
        "Inclination(deg)": 60.0,
        "Latitude(deg)": -19.806553503727898,
        "Longitude(deg)": -37.57947970268589,
        "Mean Anomaly(deg)": -22.8056016726107,
        "RAAN(deg)": 74.99327921376411,
        "Satellite Name": "Test1 350",
        "Satellite Number": 350,
        "Semi-Major Axis(m)": 6980739.136638005,
        "Time(s)": 160
    },
    {
        "Altitude(m)": 609389.3057840351,
        "Argument of Periapsis(deg)": 0.0017712208052603888,
        "Eccentricity": 0.0,
        "Inclination(deg)": 60.0,
        "Latitude(deg)": -19.278603270742128,
        "Longitude(deg)": -37.273006196950675,
        "Mean Anomaly(deg)": -22.185495527148912,
        "RAAN(deg)": 74.99285916462438,
        "Satellite Name": "Test1 350",
        "Satellite Number": 350,
        "Semi-Major Axis(m)": 6980739.136638005,
        "Time(s)": 170
    },
    {
        "Altitude(m)": 609221.2047514445,
        "Argument of Periapsis(deg)": 0.001875410264393353,
        "Eccentricity": 0.0,
        "Inclination(deg)": 60.0,
        "Latitude(deg)": -18.749947596820434,
        "Longitude(deg)": -36.96874311923483,
        "Mean Anomaly(deg)": -21.56538938168707,
        "RAAN(deg)": 74.99243911548463,
        "Satellite Name": "Test1 350",
        "Satellite Number": 350,
        "Semi-Major Axis(m)": 6980739.136638005,
        "Time(s)": 180
    },
    {
        "Altitude(m)": 609055.1531114174,
        "Argument of Periapsis(deg)": 0.0019795997235263173,
        "Eccentricity": 0.0,
        "Inclination(deg)": 60.0,
        "Latitude(deg)": -18.220610544078006,
        "Longitude(deg)": -36.66661393253421,
        "Mean Anomaly(deg)": -20.94528323622528,
        "RAAN(deg)": 74.9920190663449,
        "Satellite Name": "Test1 350",
        "Satellite Number": 350,
        "Semi-Major Axis(m)": 6980739.136638005,
        "Time(s)": 190
    }
]